[
  {"base":"","name" :"全部","children":[]},
  {"base":"bj","name" :"北京市","children":[]},
  {"base":"sh","name" :"上海市","children":[]},
  {"base":"tj","name" :"天津市","children":[
    {"base":"tj", "name":"天津市","children":[
      {"base":"tj","areaCode":"120101", "name":"和平区"},
      {"base":"tj","areaCode":"120102", "name":"河东区"},
      {"base":"tj","areaCode":"120103", "name":"河西区"},
      {"base":"tj","areaCode":"120104", "name":"南开区"},
      {"base":"tj","areaCode":"120105", "name":"河北区"},
      {"base":"tj","areaCode":"120106", "name":"红桥区"},
      {"base":"tj","areaCode":"120110", "name":"东丽区"},
      {"base":"tj","areaCode":"120111", "name":"西青区"},
      {"base":"tj","areaCode":"120112", "name":"津南区"},
      {"base":"tj","areaCode":"120113", "name":"北辰区"},
      {"base":"tj","areaCode":"120114", "name":"武清区"},
      {"base":"tj","areaCode":"120115", "name":"宝坻区"},
      {"base":"tj","areaCode":"120116", "name":"滨海新区"},
      {"base":"tj","areaCode":"120117", "name":"宁河区"},
      {"base":"tj","areaCode":"120118", "name":"静海区"},
      {"base":"tj","areaCode":"120119", "name":"蓟州区"},
      {"base":"tj","areaCode":"120225", "name":"蓟县"}
    ]}
  ]},
  {"base":"cq","name" :"重庆市","children":[]},
  {"base":"heb","name" :"河北省","children":[]},
  {"base":"sx","name" :"山西省","children":[]},
  {"base":"nmg","name" :"内蒙古自治区","children":[]},
  {"base":"ln","name" :"辽宁省","children":[]},
  {"base":"jl","name" :"吉林省","children":[]},
  {"base":"hlj","name" :"黑龙江省","children":[]},
  {"base":"js","name" :"江苏省","children":[]},
  {"base":"zj","name" :"浙江省","children":[
    {"base":"hangzhou", "name":"杭州市","children":[
      {"base":"hangzhou","areaCode":"330101", "name":"市辖区"},
      {"base":"hangzhou","areaCode":"330102", "name":"上城区"},
      {"base":"hangzhou","areaCode":"330103", "name":"下城区"},
      {"base":"hangzhou","areaCode":"330104", "name":"江干区"},
      {"base":"hangzhou","areaCode":"330105", "name":"拱墅区"},
      {"base":"hangzhou","areaCode":"330106", "name":"西湖区"},
      {"base":"hangzhou","areaCode":"330108", "name":"滨江区"},
      {"base":"hangzhou","areaCode":"330109", "name":"萧山区"},
      {"base":"hangzhou","areaCode":"330110", "name":"余杭区"},
      {"base":"hangzhou","areaCode":"330111", "name":"富阳区"},
      {"base":"hangzhou","areaCode":"330112", "name":"临安区"},
      {"base":"hangzhou","areaCode":"330122", "name":"桐庐县"},
      {"base":"hangzhou","areaCode":"330127", "name":"淳安县"},
      {"base":"hangzhou","areaCode":"330182", "name":"建德市"},
      {"base":"hangzhou","areaCode":"330185", "name":"临安市"}]},
    {"base":"ningbo", "name":"宁波市","children":[
      {"base":"ningbo","areaCode":"330201", "name":"市辖区"},
      {"base":"ningbo","areaCode":"330203", "name":"海曙区"},
      {"base":"ningbo","areaCode":"330204", "name":"江东区"},
      {"base":"ningbo","areaCode":"330205", "name":"江北区"},
      {"base":"ningbo","areaCode":"330206", "name":"北仑区"},
      {"base":"ningbo","areaCode":"330211", "name":"镇海区"},
      {"base":"ningbo","areaCode":"330212", "name":"鄞州区"},
      {"base":"ningbo","areaCode":"330213", "name":"奉化区"},
      {"base":"ningbo","areaCode":"330225", "name":"象山县"},
      {"base":"ningbo","areaCode":"330226", "name":"宁海县"},
      {"base":"ningbo","areaCode":"330281", "name":"余姚市"},
      {"base":"ningbo","areaCode":"330282", "name":"慈溪市"},
      {"base":"ningbo","areaCode":"330283", "name":"奉化市"}]},
    {"base":"wenzhou", "name":"温州市","children":[
      {"base":"wenzhou","areaCode":"330301", "name":"市辖区"},
      {"base":"wenzhou","areaCode":"330302", "name":"鹿城区"},
      {"base":"wenzhou","areaCode":"330303", "name":"龙湾区"},
      {"base":"wenzhou","areaCode":"330304", "name":"瓯海区"},
      {"base":"wenzhou","areaCode":"330305", "name":"洞头区"},
      {"base":"wenzhou","areaCode":"330324", "name":"永嘉县"},
      {"base":"wenzhou","areaCode":"330326", "name":"平阳县"},
      {"base":"wenzhou","areaCode":"330327", "name":"苍南县"},
      {"base":"wenzhou","areaCode":"330328", "name":"文成县"},
      {"base":"wenzhou","areaCode":"330329", "name":"泰顺县"},
      {"base":"wenzhou","areaCode":"330371", "name":"温州经济技术开发"},
      {"base":"wenzhou","areaCode":"330381", "name":"瑞安市"},
      {"base":"wenzhou","areaCode":"330382", "name":"乐清市"}]},
    {"base":"jiaxing", "name":"嘉兴市","children":[
      {"base":"jiaxing","areaCode":"330401", "name":"市辖区"},
      {"base":"jiaxing","areaCode":"330402", "name":"南湖区"},
      {"base":"jiaxing","areaCode":"330411", "name":"秀洲区"},
      {"base":"jiaxing","areaCode":"330421", "name":"嘉善县"},
      {"base":"jiaxing","areaCode":"330424", "name":"海盐县"},
      {"base":"jiaxing","areaCode":"330481", "name":"海宁市"},
      {"base":"jiaxing","areaCode":"330482", "name":"平湖市"},
      {"base":"jiaxing","areaCode":"330483", "name":"桐乡市"}]},
    {"base":"huzhou", "name":"湖州市","children":[
      {"base":"huzhou","areaCode":"330501", "name":"市辖区"},
      {"base":"huzhou","areaCode":"330502", "name":"吴兴区"},
      {"base":"huzhou","areaCode":"330503", "name":"南浔区"},
      {"base":"huzhou","areaCode":"330521", "name":"德清县"},
      {"base":"huzhou","areaCode":"330522", "name":"长兴县"},
      {"base":"huzhou","areaCode":"330523", "name":"安吉县"}]},
    {"base":"shaoxing", "name":"绍兴市","children":[
      {"base":"shaoxing","areaCode":"330601", "name":"市辖区"},
      {"base":"shaoxing","areaCode":"330602", "name":"越城区"},
      {"base":"shaoxing","areaCode":"330603", "name":"柯桥区"},
      {"base":"shaoxing","areaCode":"330604", "name":"上虞区"},
      {"base":"shaoxing","areaCode":"330624", "name":"新昌县"},
      {"base":"shaoxing","areaCode":"330681", "name":"诸暨市"},
      {"base":"shaoxing","areaCode":"330683", "name":"嵊州市"}]},
    {"base":"jinhua", "name":"金华市","children":[
      {"base":"jinhua","areaCode":"330701", "name":"市辖区"},
      {"base":"jinhua","areaCode":"330702", "name":"婺城区"},
      {"base":"jinhua","areaCode":"330703", "name":"金东区"},
      {"base":"jinhua","areaCode":"330723", "name":"武义县"},
      {"base":"jinhua","areaCode":"330726", "name":"浦江县"},
      {"base":"jinhua","areaCode":"330727", "name":"磐安县"},
      {"base":"jinhua","areaCode":"330781", "name":"兰溪市"},
      {"base":"jinhua","areaCode":"330782", "name":"义乌市"},
      {"base":"jinhua","areaCode":"330783", "name":"东阳市"},
      {"base":"jinhua","areaCode":"330784", "name":"永康市"}]},
    {"base":"quzhou", "name":"衢州市","children":[
      {"base":"quzhou","areaCode":"330801", "name":"市辖区"},
      {"base":"quzhou","areaCode":"330802", "name":"柯城区"},
      {"base":"quzhou","areaCode":"330803", "name":"衢江区"},
      {"base":"quzhou","areaCode":"330822", "name":"常山县"},
      {"base":"quzhou","areaCode":"330824", "name":"开化县"},
      {"base":"quzhou","areaCode":"330825", "name":"龙游县"},
      {"base":"quzhou","areaCode":"330881", "name":"江山市"}]},
    {"base":"zhoushan", "name":"舟山市","children":[
      {"base":"zhoushan","areaCode":"330901", "name":"市辖区"},
      {"base":"zhoushan","areaCode":"330902", "name":"定海区"},
      {"base":"zhoushan","areaCode":"330903", "name":"普陀区"},
      {"base":"zhoushan","areaCode":"330921", "name":"岱山县"},
      {"base":"zhoushan","areaCode":"330922", "name":"嵊泗县"}]},
    {"base":"taizhou", "name":"台州市","children":[
      {"base":"taizhou","areaCode":"331001", "name":"市辖区"},
      {"base":"taizhou","areaCode":"331002", "name":"椒江区"},
      {"base":"taizhou","areaCode":"331003", "name":"黄岩区"},
      {"base":"taizhou","areaCode":"331004", "name":"路桥区"},
      {"base":"taizhou","areaCode":"331021", "name":"玉环县"},
      {"base":"taizhou","areaCode":"331022", "name":"三门县"},
      {"base":"taizhou","areaCode":"331023", "name":"天台县"},
      {"base":"taizhou","areaCode":"331024", "name":"仙居县"},
      {"base":"taizhou","areaCode":"331081", "name":"温岭市"},
      {"base":"taizhou","areaCode":"331082", "name":"临海市"},
      {"base":"taizhou","areaCode":"331083", "name":"玉环市"}]},
    {"base":"lishui", "name":"丽水市","children":[
      {"base":"lishui","areaCode":"331101", "name":"市辖区"},
      {"base":"lishui","areaCode":"331102", "name":"莲都区"},
      {"base":"lishui","areaCode":"331121", "name":"青田县"},
      {"base":"lishui","areaCode":"331122", "name":"缙云县"},
      {"base":"lishui","areaCode":"331123", "name":"遂昌县"},
      {"base":"lishui","areaCode":"331124", "name":"松阳县"},
      {"base":"lishui","areaCode":"331125", "name":"云和县"},
      {"base":"lishui","areaCode":"331126", "name":"庆元县"},
      {"base":"lishui","areaCode":"331127", "name":"景宁畲族自治县"},
      {"base":"lishui","areaCode":"331181", "name":"龙泉市"}]}
  ]},
  {"base":"ah","name" :"安徽省","children":[]},
  {"base":"fj","name" :"福建省","children":[]},
  {"base":"jx","name" :"江西省","children":[]},
  {"base":"sd","name" :"山东省","children":[]},
  {"base":"hen","name" :"河南省","children":[]},
  {"base":"hub","name" :"湖北省","children":[]},
  {"base":"hun","name" :"湖南省","children":[]},
  {"base":"gd","name" :"广东省","children":[]},
  {"base":"gx","name" :"广西壮族自治区","children":[]},
  {"base":"sc","name" :"四川省","children":[]},
  {"base":"gz","name" :"贵州省","children":[]},
  {"base":"yn","name" :"云南省","children":[]},
  {"base":"han","name" :"海南省","children":[]},
  {"base":"snx","name" :"陕西省","children":[]},
  {"base":"gs","name" :"甘肃省","children":[]},
  {"base":"nx","name" :"宁夏回族自治区","children":[]},
  {"base":"qh","name" :"青海省","children":[]},
  {"base":"xj","name" :"新疆维吾尔自治区","children":[]},
  {"base":"xz","name" :"西藏自治区","children":[]},
  {"base":"hk","name" :"香港特别行政区","children":[]},
  {"base":"mo","name" :"澳门特别行政区","children":[]},
  {"base":"tw","name" :"台湾省","children":[]}
]